[{"OBJECT_NAME":"KUIPER-00181","OBJECT_ID":"2025-301E","EPOCH":"2026-03-09T10:43:15.830400","MEAN_MOTION":14.76425199,"ECCENTRICITY":0.0001938,"INCLINATION":51.9027,"RA_OF_ASC_NODE":78.1683,"ARG_OF_PERICENTER":92.8246,"MEAN_ANOMALY":267.2937,"EPHEMERIS_TYPE":0,"CLASSIFICATION_TYPE":"U","NORAD_CAT_ID":67137,"ELEMENT_SET_NO":999,"REV_AT_EPOCH":1369,"BSTAR":0.00049021368,"MEAN_MOTION_DOT":3.227e-5,"MEAN_MOTION_DDOT":0},{"OBJECT_NAME":"CZ-4 DEB","OBJECT_ID":"2007-042E","EPOCH":"2026-03-09T05:05:13.801056","MEAN_MOTION":14.89671222,"ECCENTRICITY":0.00640153,"INCLINATION":98.6325,"RA_OF_ASC_NODE":167.9775,"ARG_OF_PERICENTER":42.5531,"MEAN_ANOMALY":318.0619,"EPHEMERIS_TYPE":0,"CLASSIFICATION_TYPE":"U","NORAD_CAT_ID":35397,"ELEMENT_SET_NO":999,"REV_AT_EPOCH":97028,"BSTAR":0.0012361728,"MEAN_MOTION_DOT":0.00012236,"MEAN_MOTION_DDOT":0}]
